{
    "links": {
        "self": "http://www.neowsapp.com/rest/v1/neo/3624594?api_key=iIulBulltgU6a56xZRHN4H3l9WmuAYTsLGpBGhQ2"
    },
    "id": "3624594",
    "neo_reference_id": "3624594",
    "name": "(2013 BS15)",
    "designation": "2013 BS15",
    "nasa_jpl_url": "http://ssd.jpl.nasa.gov/sbdb.cgi?sstr=3624594",
    "absolute_magnitude_h": 24.9,
    "estimated_diameter": {
        "kilometers": {
            "estimated_diameter_min": 0.0278326768,
            "estimated_diameter_max": 0.0622357573
        },
        "meters": {
            "estimated_diameter_min": 27.8326768072,
            "estimated_diameter_max": 62.2357573367
        },
        "miles": {
            "estimated_diameter_min": 0.0172944182,
            "estimated_diameter_max": 0.0386714948
        },
        "feet": {
            "estimated_diameter_min": 91.3145593761,
            "estimated_diameter_max": 204.1855621004
        }
    },
    "is_potentially_hazardous_asteroid": false,
    "close_approach_data": [
        {
            "close_approach_date": "2006-01-26",
            "close_approach_date_full": "2006-Jan-26 16:41",
            "epoch_date_close_approach": 1138293660000,
            "relative_velocity": {
                "kilometers_per_second": "15.9579978997",
                "kilometers_per_hour": "57448.7924389934",
                "miles_per_hour": "35696.4455018846"
            },
            "miss_distance": {
                "astronomical": "0.2973345044",
                "lunar": "115.6631222116",
                "kilometers": "44480608.535745628",
                "miles": "27638968.5081125464"
            },
            "orbiting_body": "Earth"
        },
        {
            "close_approach_date": "2007-08-02",
            "close_approach_date_full": "2007-Aug-02 22:53",
            "epoch_date_close_approach": 1186095180000,
            "relative_velocity": {
                "kilometers_per_second": "15.5269747911",
                "kilometers_per_hour": "55897.1092480565",
                "miles_per_hour": "34732.2899102715"
            },
            "miss_distance": {
                "astronomical": "0.2802235778",
                "lunar": "109.0069717642",
                "kilometers": "41920850.362659286",
                "miles": "26048408.5346027068"
            },
            "orbiting_body": "Earth"
        },
        {
            "close_approach_date": "2013-02-03",
            "close_approach_date_full": "2013-Feb-03 07:41",
            "epoch_date_close_approach": 1359877260000,
            "relative_velocity": {
                "kilometers_per_second": "7.6669589096",
                "kilometers_per_hour": "27601.0520746419",
                "miles_per_hour": "17150.2203849351"
            },
            "miss_distance": {
                "astronomical": "0.0800707376",
                "lunar": "31.1475169264",
                "kilometers": "11978411.794288912",
                "miles": "7443039.9506225056"
            },
            "orbiting_body": "Earth"
        },
        {
            "close_approach_date": "2013-09-27",
            "close_approach_date_full": "2013-Sep-27 23:02",
            "epoch_date_close_approach": 1380322920000,
            "relative_velocity": {
                "kilometers_per_second": "6.635784735",
                "kilometers_per_hour": "23888.8250461223",
                "miles_per_hour": "14843.5868737975"
            },
            "miss_distance": {
                "astronomical": "0.3835852556",
                "lunar": "149.2146644284",
                "kilometers": "57383537.201165572",
                "miles": "35656476.6040140136"
            },
            "orbiting_body": "Earth"
        },
        {
            "close_approach_date": "2177-06-05",
            "close_approach_date_full": "2177-Jun-05 07:38",
            "epoch_date_close_approach": 6545777880000,
            "relative_velocity": {
                "kilometers_per_second": "6.2272700966",
                "kilometers_per_hour": "22418.1723478829",
                "miles_per_hour": "13929.7804791609"
            },
            "miss_distance": {
                "astronomical": "0.1799731874",
                "lunar": "70.0095698986",
                "kilometers": "26923605.492150838",
                "miles": "16729552.6931560444"
            },
            "orbiting_body": "Earth"
        }
    ],
    "orbital_data": {
        "orbit_id": "6",
        "orbit_determination_date": "2017-04-06 08:47:09",
        "first_observation_date": "2013-01-16",
        "last_observation_date": "2013-01-22",
        "data_arc_in_days": 6,
        "observations_used": 12,
        "orbit_uncertainty": "8",
        "minimum_orbit_intersection": ".00496074",
        "jupiter_tisserand_invariant": "5.561",
        "epoch_osculation": "2456310.5",
        "eccentricity": ".2211811913462561",
        "semi_major_axis": "1.113511407324586",
        "inclination": "10.0415493003659",
        "ascending_node_longitude": "114.1934802613299",
        "orbital_period": "429.1809459291956",
        "perihelion_distance": ".867223627674888",
        "perihelion_argument": "102.9382348283267",
        "aphelion_distance": "1.359799186974284",
        "perihelion_time": "2456397.570256704618",
        "mean_anomaly": "286.9648554741904",
        "mean_motion": ".8388070426113262",
        "equinox": "J2000",
        "orbit_class": {
            "orbit_class_type": "APO",
            "orbit_class_description": "Near-Earth asteroid orbits which cross the Earth’s orbit similar to that of 1862 Apollo",
            "orbit_class_range": "a (semi-major axis) > 1.0 AU; q (perihelion) < 1.017 AU"
        }
    },
    "is_sentry_object": false
}